{
  "type": "FeatureCollection",
  "features": [
    {
      "type": "Feature",
      "properties": {
        "norad_id": 67132,
        "name": "CZ-4B R/B",
        "group": "last-30-days",
        "lat": -70.38168565730872,
        "lon": 89.16038452651605,
        "alt_km": 361.4528758393453,
        "timestamp": "2025-12-18T23:35:47.784778+00:00",
        "meta_object_name": "CZ-4B R/B",
        "meta_object_id": "2025-300B",
        "meta_epoch": "2025-12-18T16:13:04.609056",
        "meta_mean_motion": 15.63831828,
        "meta_eccentricity": 0.0174197,
        "meta_inclination": 97.5563,
        "meta_ra_of_asc_node": 66.966,
        "meta_arg_of_pericenter": 9.3582,
        "meta_mean_anomaly": 351.0851,
        "meta_ephemeris_type": 0,
        "meta_classification_type": "U",
        "meta_norad_cat_id": 67132,
        "meta_element_set_no": 999,
        "meta_rev_at_epoch": 40,
        "meta_bstar": 0.00019566,
        "meta_mean_motion_dot": 0.00040543,
        "meta_mean_motion_ddot": 2.653e-06,
        "tle_line1": "1 67132U 25300B   25352.67574779  .00040543  26530-5  19566-3 0  9995",
        "tle_line2": "2 67132  97.5563  66.9660 0174197   9.3582 351.0851 15.63831828   407"
      },
      "geometry": {
        "type": "Point",
        "coordinates": [
          89.16038452651605,
          -70.38168565730872
        ]
      }
    },
    {
      "type": "Feature",
      "properties": {
        "norad_id": 67160,
        "name": "GALILEO A",
        "group": "last-30-days",
        "lat": 15.352459504207719,
        "lon": -84.18690101296419,
        "alt_km": 22937.17691038098,
        "timestamp": "2025-12-18T23:35:47.784789+00:00",
        "meta_object_name": "GALILEO A",
        "meta_object_id": "2025-302A",
        "meta_epoch": "2025-12-18T03:30:19.807776",
        "meta_mean_motion": 1.72901431,
        "meta_eccentricity": 0.00080329,
        "meta_inclination": 54.2385,
        "meta_ra_of_asc_node": 107.247,
        "meta_arg_of_pericenter": 237.4965,
        "meta_mean_anomaly": 122.3848,
        "meta_ephemeris_type": 0,
        "meta_classification_type": "U",
        "meta_norad_cat_id": 67160,
        "meta_element_set_no": 999,
        "meta_rev_at_epoch": 2,
        "meta_bstar": 0,
        "meta_mean_motion_dot": -7e-08,
        "meta_mean_motion_ddot": 0,
        "tle_line1": "1 67160U 25302A   25352.14606259 -.00000007  00000+0  00000+0 0  9998",
        "tle_line2": "2 67160  54.2385 107.2470 0008032 237.4965 122.3848  1.72901431    27"
      },
      "geometry": {
        "type": "Point",
        "coordinates": [
          -84.18690101296419,
          15.352459504207719
        ]
      }
    },
    {
      "type": "Feature",
      "properties": {
        "norad_id": 67161,
        "name": "GALILEO B",
        "group": "last-30-days",
        "lat": 15.009470814701869,
        "lon": -83.9443852492114,
        "alt_km": 22935.151607234446,
        "timestamp": "2025-12-18T23:35:47.784800+00:00",
        "meta_object_name": "GALILEO B",
        "meta_object_id": "2025-302B",
        "meta_epoch": "2025-12-18T03:29:55.932000",
        "meta_mean_motion": 1.72967481,
        "meta_eccentricity": 0.0004929,
        "meta_inclination": 54.2283,
        "meta_ra_of_asc_node": 107.2235,
        "meta_arg_of_pericenter": 250.9394,
        "meta_mean_anomaly": 108.9662,
        "meta_ephemeris_type": 0,
        "meta_classification_type": "U",
        "meta_norad_cat_id": 67161,
        "meta_element_set_no": 999,
        "meta_rev_at_epoch": 3,
        "meta_bstar": 0,
        "meta_mean_motion_dot": -7e-08,
        "meta_mean_motion_ddot": 0,
        "tle_line1": "1 67161U 25302B   25352.14578625 -.00000007  00000+0  00000+0 0  9994",
        "tle_line2": "2 67161  54.2283 107.2235 0004929 250.9394 108.9662  1.72967481    33"
      },
      "geometry": {
        "type": "Point",
        "coordinates": [
          -83.9443852492114,
          15.009470814701869
        ]
      }
    },
    {
      "type": "Feature",
      "properties": {
        "norad_id": 67162,
        "name": "ARIANE 6 R/B",
        "group": "last-30-days",
        "lat": 14.233559506978615,
        "lon": -83.29894806460204,
        "alt_km": 22915.702495160567,
        "timestamp": "2025-12-18T23:35:47.784817+00:00",
        "meta_object_name": "ARIANE 6 R/B",
        "meta_object_id": "2025-302C",
        "meta_epoch": "2025-12-18T03:29:05.112384",
        "meta_mean_motion": 1.73130383,
        "meta_eccentricity": 4.977e-05,
        "meta_inclination": 54.232,
        "meta_ra_of_asc_node": 107.26,
        "meta_arg_of_pericenter": 134.264,
        "meta_mean_anomaly": 225.699,
        "meta_ephemeris_type": 0,
        "meta_classification_type": "U",
        "meta_norad_cat_id": 67162,
        "meta_element_set_no": 999,
        "meta_rev_at_epoch": 6,
        "meta_bstar": 0,
        "meta_mean_motion_dot": -7e-08,
        "meta_mean_motion_ddot": 0,
        "tle_line1": "1 67162U 25302C   25352.14519806 -.00000007  00000+0  00000+0 0  9991",
        "tle_line2": "2 67162  54.2320 107.2600 0000497 134.2640 225.6990  1.73130383    64"
      },
      "geometry": {
        "type": "Point",
        "coordinates": [
          -83.29894806460204,
          14.233559506978615
        ]
      }
    },
    {
      "type": "Feature",
      "properties": {
        "norad_id": 67219,
        "name": "DISKSAT A",
        "group": "last-30-days",
        "lat": -16.78678579133324,
        "lon": -60.12754518717254,
        "alt_km": 549.0285161363381,
        "timestamp": "2025-12-18T23:35:47.784827+00:00",
        "meta_object_name": "DISKSAT A",
        "meta_object_id": "2025-305A",
        "meta_epoch": "2025-12-18T06:11:23.597664",
        "meta_mean_motion": 15.05868419,
        "meta_eccentricity": 0.00043552,
        "meta_inclination": 45.0103,
        "meta_ra_of_asc_node": 321.2665,
        "meta_arg_of_pericenter": 276.2808,
        "meta_mean_anomaly": 83.7571,
        "meta_ephemeris_type": 0,
        "meta_classification_type": "U",
        "meta_norad_cat_id": 67219,
        "meta_element_set_no": 999,
        "meta_rev_at_epoch": 1,
        "meta_bstar": 6.4032814e-05,
        "meta_mean_motion_dot": 7.05e-06,
        "meta_mean_motion_ddot": 0,
        "tle_line1": "1 67219U 25305A   25352.25791201  .00000705  00000+0  64033-4 0  9995",
        "tle_line2": "2 67219  45.0103 321.2665 0004355 276.2808  83.7571 15.05868419    14"
      },
      "geometry": {
        "type": "Point",
        "coordinates": [
          -60.12754518717254,
          -16.78678579133324
        ]
      }
    },
    {
      "type": "Feature",
      "properties": {
        "norad_id": 67220,
        "name": "DISKSAT B",
        "group": "last-30-days",
        "lat": -17.586893056244218,
        "lon": -61.046359481182606,
        "alt_km": 550.2092042611257,
        "timestamp": "2025-12-18T23:35:47.784840+00:00",
        "meta_object_name": "DISKSAT B",
        "meta_object_id": "2025-305B",
        "meta_epoch": "2025-12-18T06:11:23.538912",
        "meta_mean_motion": 15.05411903,
        "meta_eccentricity": 0.0003917,
        "meta_inclination": 45.0065,
        "meta_ra_of_asc_node": 321.27,
        "meta_arg_of_pericenter": 288.0087,
        "meta_mean_anomaly": 72.0361,
        "meta_ephemeris_type": 0,
        "meta_classification_type": "U",
        "meta_norad_cat_id": 67220,
        "meta_element_set_no": 999,
        "meta_rev_at_epoch": 1,
        "meta_bstar": 0.00011832,
        "meta_mean_motion_dot": 1.486e-05,
        "meta_mean_motion_ddot": 0,
        "tle_line1": "1 67220U 25305B   25352.25791133  .00001486  00000+0  11832-3 0  9996",
        "tle_line2": "2 67220  45.0065 321.2700 0003917 288.0087  72.0361 15.05411903    16"
      },
      "geometry": {
        "type": "Point",
        "coordinates": [
          -61.046359481182606,
          -17.586893056244218
        ]
      }
    },
    {
      "type": "Feature",
      "properties": {
        "norad_id": 67221,
        "name": "DISKSAT C",
        "group": "last-30-days",
        "lat": 3.1513830336739708,
        "lon": -39.574045000912896,
        "alt_km": 488.20992861697414,
        "timestamp": "2025-12-18T23:35:47.784850+00:00",
        "meta_object_name": "DISKSAT C",
        "meta_object_id": "2025-305C",
        "meta_epoch": "2025-12-18T06:11:31.580160",
        "meta_mean_motion": 15.16973586,
        "meta_eccentricity": 0.00625938,
        "meta_inclination": 45.0151,
        "meta_ra_of_asc_node": 321.1654,
        "meta_arg_of_pericenter": 307.7869,
        "meta_mean_anomaly": 51.7353,
        "meta_ephemeris_type": 0,
        "meta_classification_type": "U",
        "meta_norad_cat_id": 67221,
        "meta_element_set_no": 999,
        "meta_rev_at_epoch": 1,
        "meta_bstar": 0.00014323237,
        "meta_mean_motion_dot": 2.734e-05,
        "meta_mean_motion_ddot": 0,
        "tle_line1": "1 67221U 25305C   25352.25800440  .00002734  00000+0  14323-3 0  9994",
        "tle_line2": "2 67221  45.0151 321.1654 0062593 307.7869  51.7353 15.16973586    19"
      },
      "geometry": {
        "type": "Point",
        "coordinates": [
          -39.574045000912896,
          3.1513830336739708
        ]
      }
    }
  ]
}